{
    "links": {
        "self": "http://www.neowsapp.com/rest/v1/neo/3740955?api_key=iIulBulltgU6a56xZRHN4H3l9WmuAYTsLGpBGhQ2"
    },
    "id": "3740955",
    "neo_reference_id": "3740955",
    "name": "(2016 BR15)",
    "designation": "2016 BR15",
    "nasa_jpl_url": "http://ssd.jpl.nasa.gov/sbdb.cgi?sstr=3740955",
    "absolute_magnitude_h": 23.0,
    "estimated_diameter": {
        "kilometers": {
            "estimated_diameter_min": 0.0667659413,
            "estimated_diameter_max": 0.1492931834
        },
        "meters": {
            "estimated_diameter_min": 66.7659413495,
            "estimated_diameter_max": 149.2931834393
        },
        "miles": {
            "estimated_diameter_min": 0.0414864197,
            "estimated_diameter_max": 0.0927664547
        },
        "feet": {
            "estimated_diameter_min": 219.0483710172,
            "estimated_diameter_max": 489.807047955
        }
    },
    "is_potentially_hazardous_asteroid": false,
    "close_approach_data": [
        {
            "close_approach_date": "2016-01-18",
            "close_approach_date_full": "2016-Jan-18 04:08",
            "epoch_date_close_approach": 1453090080000,
            "relative_velocity": {
                "kilometers_per_second": "17.2403252096",
                "kilometers_per_hour": "62065.1707544995",
                "miles_per_hour": "38564.8834613167"
            },
            "miss_distance": {
                "astronomical": "0.1765699134",
                "lunar": "68.6856963126",
                "kilometers": "26414482.950724458",
                "miles": "16413198.6154472004"
            },
            "orbiting_body": "Earth"
        },
        {
            "close_approach_date": "2159-01-29",
            "close_approach_date_full": "2159-Jan-29 04:32",
            "epoch_date_close_approach": 5966713920000,
            "relative_velocity": {
                "kilometers_per_second": "24.7900131748",
                "kilometers_per_hour": "89244.0474294359",
                "miles_per_hour": "55452.780470807"
            },
            "miss_distance": {
                "astronomical": "0.1939624127",
                "lunar": "75.4513785403",
                "kilometers": "29016363.799980949",
                "miles": "18029932.4062331362"
            },
            "orbiting_body": "Earth"
        }
    ],
    "orbital_data": {
        "orbit_id": "8",
        "orbit_determination_date": "2017-04-06 08:28:51",
        "first_observation_date": "2016-01-30",
        "last_observation_date": "2016-02-11",
        "data_arc_in_days": 12,
        "observations_used": 46,
        "orbit_uncertainty": "8",
        "minimum_orbit_intersection": ".105821",
        "jupiter_tisserand_invariant": "4.651",
        "epoch_osculation": "2457425.5",
        "eccentricity": ".5450839181041784",
        "semi_major_axis": "1.342796750727334",
        "inclination": "24.4164251310768",
        "ascending_node_longitude": "312.3167087567975",
        "orbital_period": "568.3473631053566",
        "perihelion_distance": ".6108598366233189",
        "perihelion_argument": "67.84150095499209",
        "aphelion_distance": "2.074733664831349",
        "perihelion_time": "2457342.465942330332",
        "mean_anomaly": "52.59505489346176",
        "mean_motion": ".633415448666849",
        "equinox": "J2000",
        "orbit_class": {
            "orbit_class_type": "APO",
            "orbit_class_description": "Near-Earth asteroid orbits which cross the Earth’s orbit similar to that of 1862 Apollo",
            "orbit_class_range": "a (semi-major axis) > 1.0 AU; q (perihelion) < 1.017 AU"
        }
    },
    "is_sentry_object": false
}